[{"OBJECT_NAME":"STARLINK-34428","OBJECT_ID":"2025-123C","EPOCH":"2026-03-09T16:54:24.343488","MEAN_MOTION":14.98337283,"ECCENTRICITY":0.0003157,"INCLINATION":70.003,"RA_OF_ASC_NODE":194.3014,"ARG_OF_PERICENTER":272.9746,"MEAN_ANOMALY":87.1052,"EPHEMERIS_TYPE":0,"CLASSIFICATION_TYPE":"U","NORAD_CAT_ID":64293,"ELEMENT_SET_NO":999,"REV_AT_EPOCH":4284,"BSTAR":0.00064668709,"MEAN_MOTION_DOT":7.633e-5,"MEAN_MOTION_DDOT":0},{"OBJECT_NAME":"CZ-6A DEB","OBJECT_ID":"2024-140HV","EPOCH":"2026-03-09T13:53:09.132288","MEAN_MOTION":14.808573,"ECCENTRICITY":0.0152423,"INCLINATION":88.8878,"RA_OF_ASC_NODE":271.6068,"ARG_OF_PERICENTER":149.3328,"MEAN_ANOMALY":211.6917,"EPHEMERIS_TYPE":0,"CLASSIFICATION_TYPE":"U","NORAD_CAT_ID":60842,"ELEMENT_SET_NO":999,"REV_AT_EPOCH":8460,"BSTAR":0.00072437,"MEAN_MOTION_DOT":6.859e-5,"MEAN_MOTION_DDOT":0}]
